[
  {
    "name": "ONEWEB-0312",
    "noradId": "49098",
    "line1": "1 49098U 21075Z   26180.48855603  .00000085  00000+0  18500-3 0  9990",
    "line2": "2 49098  87.9130   3.4256 0002167  87.7188 272.4191 13.17647748235223"
  },
  {
    "name": "ONEWEB-0313",
    "noradId": "49099",
    "line1": "1 49099U 21075AA  26180.49348830  .00000061  00000+0  12451-3 0  9994",
    "line2": "2 49099  87.9128   3.4299 0001933  86.2221 273.9132 13.17649174235215"
  },
  {
    "name": "ONEWEB-0314",
    "noradId": "49100",
    "line1": "1 49100U 21075AB  26180.53581878  .00000009  00000+0 -10821-4 0  9996",
    "line2": "2 49100  87.9142   3.3958 0002241  86.3990 273.7398 13.17650000235191"
  },
  {
    "name": "ONEWEB-0315",
    "noradId": "49101",
    "line1": "1 49101U 21075AC  26180.48268169 -.00000211  00000+0 -62300-3 0  9990",
    "line2": "2 49101  87.8954 348.1989 0001882  81.1006 279.0335 13.12441259236782"
  },
  {
    "name": "ONEWEB-0316",
    "noradId": "49102",
    "line1": "1 49102U 21075AD  26180.45079759  .00000074  00000+0  15473-3 0  9997",
    "line2": "2 49102  87.9177 333.0159 0001843  96.1094 264.0248 13.18675545238820"
  },
  {
    "name": "ONEWEB-0317",
    "noradId": "49103",
    "line1": "1 49103U 21075AE  26180.48606957 -.00000291  00000+0 -84435-3 0  9994",
    "line2": "2 49103  87.8956 348.2223 0002012 114.3055 245.8283 13.12441502236804"
  },
  {
    "name": "ONEWEB-0318",
    "noradId": "49104",
    "line1": "1 49104U 21075AF  26179.91629991  .00001445  00000+0  36313-2 0  9995",
    "line2": "2 49104  87.9178 333.1238 0001889  89.1631 270.9718 13.18678792238714"
  },
  {
    "name": "ONEWEB-0319",
    "noradId": "49105",
    "line1": "1 49105U 21075AG  26180.55099569  .00000042  00000+0  74215-4 0  9997",
    "line2": "2 49105  87.9131   3.4079 0001922  73.7074 286.4269 13.17650031235234"
  },
  {
    "name": "ONEWEB-0323",
    "noradId": "49106",
    "line1": "1 49106U 21075AH  26180.46744345  .00000297  00000+0  79145-3 0  9995",
    "line2": "2 49106  87.8955 348.2072 0002059  78.0757 282.0602 13.12440865236162"
  },
  {
    "name": "ONEWEB-0329",
    "noradId": "49107",
    "line1": "1 49107U 21075AJ  26180.48349956  .00000130  00000+0  30110-3 0  9992",
    "line2": "2 49107  87.9131   3.4221 0002002  88.0609 272.0751 13.17650174235200"
  },
  {
    "name": "ONEWEB-0330",
    "noradId": "49108",
    "line1": "1 49108U 21075AK  26180.49527356  .00000016  00000+0  76142-5 0  9996",
    "line2": "2 49108  87.9134   3.4347 0002097  91.5766 268.5607 13.19183655235241"
  },
  {
    "name": "ONEWEB-0292",
    "noradId": "49186",
    "line1": "1 49186U 21083A   26180.35396691  .00000127  00000+0  31277-3 0  9993",
    "line2": "2 49186  87.8963 317.8156 0001848  93.3357 266.7983 13.13469375232520"
  },
  {
    "name": "ONEWEB-0303",
    "noradId": "49187",
    "line1": "1 49187U 21083B   26180.44405711  .00000055  00000+0  10790-3 0  9995",
    "line2": "2 49187  87.9178 333.0177 0001870  89.4973 270.6374 13.18687597231595"
  },
  {
    "name": "ONEWEB-0306",
    "noradId": "49188",
    "line1": "1 49188U 21083C   26180.43393274  .00000033  00000+0  50399-4 0  9991",
    "line2": "2 49188  87.9181 333.0078 0001908 102.0945 258.0401 13.18688061231636"
  },
  {
    "name": "ONEWEB-0307",
    "noradId": "49189",
    "line1": "1 49189U 21083D   26180.34804444 -.00000032  00000+0 -12271-3 0  9995",
    "line2": "2 49189  87.8965 317.8142 0001921  94.6559 265.4790 13.13471098232527"
  },
  {
    "name": "ONEWEB-0320",
    "noradId": "49190",
    "line1": "1 49190U 21083E   26180.45417478  .00000020  00000+0  17974-4 0  9997",
    "line2": "2 49190  87.9171 333.0210 0001839  96.3217 263.8124 13.18686774231596"
  },
  {
    "name": "ONEWEB-0321",
    "noradId": "49191",
    "line1": "1 49191U 21083F   26179.79182743 -.00000032  00000+0 -11041-3 0  9990",
    "line2": "2 49191  87.9194 272.1223 0002025 108.1455 251.9899 13.20772761238367"
  },
  {
    "name": "ONEWEB-0322",
    "noradId": "49192",
    "line1": "1 49192U 21083G   26180.41999476 -.00000189  00000+0 -55271-3 0  9997",
    "line2": "2 49192  87.8965 317.8001 0001625 111.0330 249.0973 13.13472268232528"
  },
  {
    "name": "ONEWEB-0324",
    "noradId": "49193",
    "line1": "1 49193U 21083H   26180.50308035  .00000046  00000+0  84416-4 0  9997",
    "line2": "2 49193  87.9182 332.9998 0002052  96.9564 263.1802 13.18686450231622"
  },
  {
    "name": "ONEWEB-0325",
    "noradId": "49194",
    "line1": "1 49194U 21083J   26180.43057473  .00000036  00000+0  57338-4 0  9999",
    "line2": "2 49194  87.9172 333.0213 0001776  94.4063 265.7272 13.18686812231624"
  },
  {
    "name": "ONEWEB-0326",
    "noradId": "49195",
    "line1": "1 49195U 21083K   26180.44589660  .00000051  00000+0  97043-4 0  9993",
    "line2": "2 49195  87.9180 333.0172 0001847  86.2758 273.8586 13.18686284231617"
  },
  {
    "name": "ONEWEB-0327",
    "noradId": "49196",
    "line1": "1 49196U 21083L   26180.44561639  .00000058  00000+0  11360-3 0  9994",
    "line2": "2 49196  87.9173 333.0206 0001692  83.3468 276.7856 13.18686020231634"
  },
  {
    "name": "ONEWEB-0328",
    "noradId": "49197",
    "line1": "1 49197U 21083M   26180.40983006 -.00000236  00000+0 -68243-3 0  9999",
    "line2": "2 49197  87.8974 317.7761 0002028  98.7224 261.4135 13.13471014232500"
  },
  {
    "name": "ONEWEB-0331",
    "noradId": "49198",
    "line1": "1 49198U 21083N   26180.43899108  .00000037  00000+0  60856-4 0  9992",
    "line2": "2 49198  87.9182 333.0123 0001931  85.2690 274.8662 13.18687642231622"
  },
  {
    "name": "ONEWEB-0333",
    "noradId": "49199",
    "line1": "1 49199U 21083P   26180.40475073 -.00000261  00000+0 -74943-3 0  9993",
    "line2": "2 49199  87.8965 317.8022 0001812  97.6461 262.4873 13.13470669232510"
  },
  {
    "name": "ONEWEB-0334",
    "noradId": "49200",
    "line1": "1 49200U 21083Q   26179.95764299  .00000060  00000+0  11649-3 0  9994",
    "line2": "2 49200  87.9192 272.0994 0001811 123.9819 236.1486 13.20774290238345"
  },
  {
    "name": "ONEWEB-0335",
    "noradId": "49201",
    "line1": "1 49201U 21083R   26180.39966769 -.00000152  00000+0 -45013-3 0  9997",
    "line2": "2 49201  87.8968 317.8005 0001907  93.0543 267.0804 13.13470845232526"
  },
  {
    "name": "ONEWEB-0336",
    "noradId": "49202",
    "line1": "1 49202U 21083S   26180.37090831  .00000416  00000+0  11050-2 0  9998",
    "line2": "2 49202  87.8964 317.8017 0001974  90.2611 269.8744 13.13472162232511"
  },
  {
    "name": "ONEWEB-0337",
    "noradId": "49203",
    "line1": "1 49203U 21083T   26180.45709706  .00000342  00000+0  90114-3 0  9993",
    "line2": "2 49203  87.8963 317.7903 0002075  96.7536 263.3829 13.13470587232527"
  },
  {
    "name": "ONEWEB-0338",
    "noradId": "49204",
    "line1": "1 49204U 21083U   26179.70763164 -.00000297  00000+0 -76274-3 0  9990",
    "line2": "2 49204  87.9185 272.1521 0001825 108.2048 251.9284 13.20772318238332"
  },
  {
    "name": "ONEWEB-0339",
    "noradId": "49205",
    "line1": "1 49205U 21083V   26180.31333340  .00000067  00000+0  14910-3 0  9991",
    "line2": "2 49205  87.8964 317.8116 0001855 107.7317 252.4014 13.13470634232485"
  }
]