OBJECT_NAME,OBJECT_ID,EPOCH,MEAN_MOTION,ECCENTRICITY,INCLINATION,RA_OF_ASC_NODE,ARG_OF_PERICENTER,MEAN_ANOMALY,EPHEMERIS_TYPE,CLASSIFICATION_TYPE,NORAD_CAT_ID,ELEMENT_SET_NO,REV_AT_EPOCH,BSTAR,MEAN_MOTION_DOT,MEAN_MOTION_DDOT
ONEWEB-0312,2021-075Z,2026-06-29T11:43:31.240992,13.17647748,.0002167,87.9130,3.4256,87.7188,272.4191,0,U,49098,999,23522,.185E-3,.85E-6,0
ONEWEB-0313,2021-075AA,2026-06-29T11:50:37.389120,13.17649174,.0001933,87.9128,3.4299,86.2221,273.9132,0,U,49099,999,23521,.12451E-3,.61E-6,0
ONEWEB-0314,2021-075AB,2026-06-29T12:51:34.742592,13.17650000,.0002241,87.9142,3.3958,86.3990,273.7398,0,U,49100,999,23519,-.10821E-4,.9E-7,0
ONEWEB-0315,2021-075AC,2026-06-29T11:35:03.698016,13.12441259,.0001882,87.8954,348.1989,81.1006,279.0335,0,U,49101,999,23678,-.623E-3,-.211E-5,0
ONEWEB-0316,2021-075AD,2026-06-29T10:49:08.911776,13.18675545,.0001843,87.9177,333.0159,96.1094,264.0248,0,U,49102,999,23882,.15473E-3,.74E-6,0
ONEWEB-0317,2021-075AE,2026-06-29T11:39:56.410848,13.12441502,.0002012,87.8956,348.2223,114.3055,245.8283,0,U,49103,999,23680,-.84435E-3,-.291E-5,0
ONEWEB-0318,2021-075AF,2026-06-28T21:59:28.312224,13.18678792,.0001889,87.9178,333.1238,89.1631,270.9718,0,U,49104,999,23871,.36313141E-2,.1445E-4,0
ONEWEB-0319,2021-075AG,2026-06-29T13:13:26.027616,13.17650031,.0001922,87.9131,3.4079,73.7074,286.4269,0,U,49105,999,23523,.74215E-4,.42E-6,0
ONEWEB-0323,2021-075AH,2026-06-29T11:13:07.114080,13.12440865,.0002059,87.8955,348.2072,78.0757,282.0602,0,U,49106,999,23616,.79145E-3,.297E-5,0
ONEWEB-0329,2021-075AJ,2026-06-29T11:36:14.361984,13.17650174,.0002002,87.9131,3.4221,88.0609,272.0751,0,U,49107,999,23520,.3011E-3,.13E-5,0
ONEWEB-0330,2021-075AK,2026-06-29T11:53:11.635584,13.19183655,.0002097,87.9134,3.4347,91.5766,268.5607,0,U,49108,999,23524,.76142E-5,.16E-6,0
ONEWEB-0292,2021-083A,2026-06-29T08:29:42.741024,13.13469375,.0001848,87.8963,317.8156,93.3357,266.7983,0,U,49186,999,23252,.31277E-3,.127E-5,0
ONEWEB-0303,2021-083B,2026-06-29T10:39:26.534304,13.18687597,.000187,87.9178,333.0177,89.4973,270.6374,0,U,49187,999,23159,.1079E-3,.55E-6,0
ONEWEB-0306,2021-083C,2026-06-29T10:24:51.788736,13.18688061,.0001908,87.9181,333.0078,102.0945,258.0401,0,U,49188,999,23163,.50399E-4,.33E-6,0
ONEWEB-0307,2021-083D,2026-06-29T08:21:11.039616,13.13471098,.0001921,87.8965,317.8142,94.6559,265.4790,0,U,49189,999,23252,-.12271E-3,-.32E-6,0
ONEWEB-0320,2021-083E,2026-06-29T10:54:00.700992,13.18686774,.0001839,87.9171,333.0210,96.3217,263.8124,0,U,49190,999,23159,.17974E-4,.2E-6,0
ONEWEB-0321,2021-083F,2026-06-28T19:00:13.889952,13.20772761,.00020252,87.9194,272.1223,108.1455,251.9899,0,U,49191,999,23836,-.11040529E-3,-.32E-6,0
ONEWEB-0322,2021-083G,2026-06-29T10:04:47.547264,13.13472268,.0001625,87.8965,317.8001,111.0330,249.0973,0,U,49192,999,23252,-.55271E-3,-.189E-5,0
ONEWEB-0324,2021-083H,2026-06-29T12:04:26.142240,13.18686450,.0002052,87.9182,332.9998,96.9564,263.1802,0,U,49193,999,23162,.84416E-4,.46E-6,0
ONEWEB-0325,2021-083J,2026-06-29T10:20:01.656672,13.18686812,.0001776,87.9172,333.0213,94.4063,265.7272,0,U,49194,999,23162,.57338E-4,.36E-6,0
ONEWEB-0326,2021-083K,2026-06-29T10:42:05.466240,13.18686284,.0001847,87.9180,333.0172,86.2758,273.8586,0,U,49195,999,23161,.97043E-4,.51E-6,0
ONEWEB-0327,2021-083L,2026-06-29T10:41:41.256096,13.18686020,.0001692,87.9173,333.0206,83.3468,276.7856,0,U,49196,999,23163,.1136E-3,.58E-6,0
ONEWEB-0328,2021-083M,2026-06-29T09:50:09.317184,13.13471014,.0002028,87.8974,317.7761,98.7224,261.4135,0,U,49197,999,23250,-.68243E-3,-.236E-5,0
ONEWEB-0331,2021-083N,2026-06-29T10:32:08.829312,13.18687642,.0001931,87.9182,333.0123,85.2690,274.8662,0,U,49198,999,23162,.60856E-4,.37E-6,0
ONEWEB-0333,2021-083P,2026-06-29T09:42:50.463072,13.13470669,.0001812,87.8965,317.8022,97.6461,262.4873,0,U,49199,999,23251,-.74943E-3,-.261E-5,0
ONEWEB-0334,2021-083Q,2026-06-28T22:59:00.354336,13.20774290,.00018113,87.9192,272.0994,123.9819,236.1486,0,U,49200,999,23834,.11649352E-3,.6E-6,0
ONEWEB-0335,2021-083R,2026-06-29T09:35:31.288416,13.13470845,.0001907,87.8968,317.8005,93.0543,267.0804,0,U,49201,999,23252,-.45013E-3,-.152E-5,0
ONEWEB-0336,2021-083S,2026-06-29T08:54:06.477984,13.13472162,.0001974,87.8964,317.8017,90.2611,269.8744,0,U,49202,999,23251,.1105E-2,.416E-5,0
ONEWEB-0337,2021-083T,2026-06-29T10:58:13.185984,13.13470587,.0002075,87.8963,317.7903,96.7536,263.3829,0,U,49203,999,23252,.90114E-3,.342E-5,0
ONEWEB-0338,2021-083U,2026-06-28T16:58:59.373696,13.20772318,.00018251,87.9185,272.1521,108.2048,251.9284,0,U,49204,999,23833,-.76274141E-3,-.297E-5,0
ONEWEB-0339,2021-083V,2026-06-29T07:31:12.005760,13.13470634,.0001855,87.8964,317.8116,107.7317,252.4014,0,U,49205,999,23248,.1491E-3,.67E-6,0
